{
  "type": "FeatureCollection",
  "features": [
    {
      "type": "Feature",
      "properties": {
        "norad_id": 37836,
        "name": "EUTELSAT 16A",
        "group": "eutelsat",
        "lat": -0.04415495569224472,
        "lon": -47.94579659389346,
        "alt_km": 35768.34434136919,
        "timestamp": "2025-12-05T14:45:14.984827+00:00",
        "meta_object_name": "EUTELSAT 16A",
        "meta_object_id": "2011-057A",
        "meta_epoch": "2025-12-04T08:39:45.274752",
        "meta_mean_motion": 1.0027335,
        "meta_eccentricity": 0.0006543,
        "meta_inclination": 0.0587,
        "meta_ra_of_asc_node": 348.7251,
        "meta_arg_of_pericenter": 271.6062,
        "meta_mean_anomaly": 319.0619,
        "meta_ephemeris_type": 0,
        "meta_classification_type": "U",
        "meta_norad_cat_id": 37836,
        "meta_element_set_no": 999,
        "meta_rev_at_epoch": 537,
        "meta_bstar": 0,
        "meta_mean_motion_dot": 1.2e-06,
        "meta_mean_motion_ddot": 0,
        "tle_line1": "1 37836U 11057A   25338.36094068  .00000120  00000+0  00000+0 0  9999",
        "tle_line2": "2 37836   0.0587 348.7251 0006543 271.6062 319.0619  1.00273350  5376"
      },
      "geometry": {
        "type": "Point",
        "coordinates": [
          -47.94579659389346,
          -0.04415495569224472
        ]
      }
    },
    {
      "type": "Feature",
      "properties": {
        "norad_id": 38992,
        "name": "EUTELSAT 21B",
        "group": "eutelsat",
        "lat": -0.04021187148251733,
        "lon": -42.36913964868031,
        "alt_km": 35776.307939056445,
        "timestamp": "2025-12-05T14:45:14.984840+00:00",
        "meta_object_name": "EUTELSAT 21B",
        "meta_object_id": "2012-062B",
        "meta_epoch": "2025-12-04T05:16:03.821952",
        "meta_mean_motion": 1.00274134,
        "meta_eccentricity": 0.0003375,
        "meta_inclination": 0.0676,
        "meta_ra_of_asc_node": 347.5432,
        "meta_arg_of_pericenter": 278.9429,
        "meta_mean_anomaly": 267.4453,
        "meta_ephemeris_type": 0,
        "meta_classification_type": "U",
        "meta_norad_cat_id": 38992,
        "meta_element_set_no": 999,
        "meta_rev_at_epoch": 4787,
        "meta_bstar": 0,
        "meta_mean_motion_dot": 1.46e-06,
        "meta_mean_motion_ddot": 0,
        "tle_line1": "1 38992U 12062B   25338.21948868  .00000146  00000+0  00000+0 0  9998",
        "tle_line2": "2 38992   0.0676 347.5432 0003375 278.9429 267.4453  1.00274134 47878"
      },
      "geometry": {
        "type": "Point",
        "coordinates": [
          -42.36913964868031,
          -0.04021187148251733
        ]
      }
    },
    {
      "type": "Feature",
      "properties": {
        "norad_id": 39020,
        "name": "EUTELSAT 70B",
        "group": "eutelsat",
        "lat": 0.015171436517303832,
        "lon": 6.5082437628050975,
        "alt_km": 35796.231781039656,
        "timestamp": "2025-12-05T14:45:14.984852+00:00",
        "meta_object_name": "EUTELSAT 70B",
        "meta_object_id": "2012-069A",
        "meta_epoch": "2025-12-04T14:03:47.674080",
        "meta_mean_motion": 1.00271728,
        "meta_eccentricity": 0.000432,
        "meta_inclination": 0.0633,
        "meta_ra_of_asc_node": 4.4819,
        "meta_arg_of_pericenter": 238.1635,
        "meta_mean_anomaly": 112.4595,
        "meta_ephemeris_type": 0,
        "meta_classification_type": "U",
        "meta_norad_cat_id": 39020,
        "meta_element_set_no": 999,
        "meta_rev_at_epoch": 4755,
        "meta_bstar": 0,
        "meta_mean_motion_dot": -2.9e-07,
        "meta_mean_motion_ddot": 0,
        "tle_line1": "1 39020U 12069A   25338.58596845 -.00000029  00000+0  00000+0 0  9993",
        "tle_line2": "2 39020   0.0633   4.4819 0004320 238.1635 112.4595  1.00271728 47557"
      },
      "geometry": {
        "type": "Point",
        "coordinates": [
          6.5082437628050975,
          0.015171436517303832
        ]
      }
    },
    {
      "type": "Feature",
      "properties": {
        "norad_id": 39122,
        "name": "EUTELSAT 117 WEST A",
        "group": "eutelsat",
        "lat": -0.027346597594256714,
        "lon": 179.1502452638387,
        "alt_km": 35782.73132261587,
        "timestamp": "2025-12-05T14:45:14.984865+00:00",
        "meta_object_name": "EUTELSAT 117 WEST A",
        "meta_object_id": "2013-012A",
        "meta_epoch": "2025-12-04T13:10:15.303072",
        "meta_mean_motion": 1.00272437,
        "meta_eccentricity": 0.0003209,
        "meta_inclination": 0.0194,
        "meta_ra_of_asc_node": 314.6933,
        "meta_arg_of_pericenter": 301.181,
        "meta_mean_anomaly": 258.5257,
        "meta_ephemeris_type": 0,
        "meta_classification_type": "U",
        "meta_norad_cat_id": 39122,
        "meta_element_set_no": 999,
        "meta_rev_at_epoch": 4648,
        "meta_bstar": 0,
        "meta_mean_motion_dot": 1e-08,
        "meta_mean_motion_ddot": 0,
        "tle_line1": "1 39122U 13012A   25338.54878823  .00000001  00000+0  00000+0 0  9999",
        "tle_line2": "2 39122   0.0194 314.6933 0003209 301.1810 258.5257  1.00272437 46482"
      },
      "geometry": {
        "type": "Point",
        "coordinates": [
          179.1502452638387,
          -0.027346597594256714
        ]
      }
    },
    {
      "type": "Feature",
      "properties": {
        "norad_id": 39163,
        "name": "EUTELSAT 7B",
        "group": "eutelsat",
        "lat": -0.07153435585034536,
        "lon": -57.05248717952961,
        "alt_km": 35768.78228327522,
        "timestamp": "2025-12-05T14:45:14.984877+00:00",
        "meta_object_name": "EUTELSAT 7B",
        "meta_object_id": "2013-022A",
        "meta_epoch": "2025-12-04T10:18:38.727360",
        "meta_mean_motion": 1.00269718,
        "meta_eccentricity": 0.0004273,
        "meta_inclination": 0.0678,
        "meta_ra_of_asc_node": 2.7542,
        "meta_arg_of_pericenter": 308.3811,
        "meta_mean_anomaly": 284.0236,
        "meta_ephemeris_type": 0,
        "meta_classification_type": "U",
        "meta_norad_cat_id": 39163,
        "meta_element_set_no": 999,
        "meta_rev_at_epoch": 4600,
        "meta_bstar": 0,
        "meta_mean_motion_dot": 6.3e-07,
        "meta_mean_motion_ddot": 0,
        "tle_line1": "1 39163U 13022A   25338.42961490  .00000063  00000+0  00000+0 0  9993",
        "tle_line2": "2 39163   0.0678   2.7542 0004273 308.3811 284.0236  1.00269718 46004"
      },
      "geometry": {
        "type": "Point",
        "coordinates": [
          -57.05248717952961,
          -0.07153435585034536
        ]
      }
    },
    {
      "type": "Feature",
      "properties": {
        "norad_id": 39612,
        "name": "EXPRESS-AT1",
        "group": "eutelsat",
        "lat": 0.024353509714371602,
        "lon": -8.038957126226157,
        "alt_km": 35786.99375303355,
        "timestamp": "2025-12-05T14:45:14.984889+00:00",
        "meta_object_name": "EXPRESS-AT1",
        "meta_object_id": "2014-010A",
        "meta_epoch": "2025-12-04T13:59:33.080064",
        "meta_mean_motion": 1.00270212,
        "meta_eccentricity": 1.36e-05,
        "meta_inclination": 0.0176,
        "meta_ra_of_asc_node": 304.2222,
        "meta_arg_of_pericenter": 222.5945,
        "meta_mean_anomaly": 172.7241,
        "meta_ephemeris_type": 0,
        "meta_classification_type": "U",
        "meta_norad_cat_id": 39612,
        "meta_element_set_no": 999,
        "meta_rev_at_epoch": 4286,
        "meta_bstar": 0,
        "meta_mean_motion_dot": 9.3e-07,
        "meta_mean_motion_ddot": 0,
        "tle_line1": "1 39612U 14010A   25338.58302176  .00000093  00000+0  00000+0 0  9990",
        "tle_line2": "2 39612   0.0176 304.2222 0000136 222.5945 172.7241  1.00270212 42860"
      },
      "geometry": {
        "type": "Point",
        "coordinates": [
          -8.038957126226157,
          0.024353509714371602
        ]
      }
    },
    {
      "type": "Feature",
      "properties": {
        "norad_id": 39613,
        "name": "EXPRESS-AT2",
        "group": "eutelsat",
        "lat": 0.04518644481697423,
        "lon": 75.82019390483656,
        "alt_km": 35791.74108924344,
        "timestamp": "2025-12-05T14:45:14.984901+00:00",
        "meta_object_name": "EXPRESS-AT2",
        "meta_object_id": "2014-010B",
        "meta_epoch": "2025-12-04T16:06:13.447008",
        "meta_mean_motion": 1.00270108,
        "meta_eccentricity": 0.0001528,
        "meta_inclination": 0.0202,
        "meta_ra_of_asc_node": 341.4557,
        "meta_arg_of_pericenter": 312.4947,
        "meta_mean_anomaly": 161.1947,
        "meta_ephemeris_type": 0,
        "meta_classification_type": "U",
        "meta_norad_cat_id": 39613,
        "meta_element_set_no": 999,
        "meta_rev_at_epoch": 4255,
        "meta_bstar": 0,
        "meta_mean_motion_dot": 0,
        "meta_mean_motion_ddot": 0,
        "tle_line1": "1 39613U 14010B   25338.67098897  .00000000  00000+0  00000+0 0  9991",
        "tle_line2": "2 39613   0.0202 341.4557 0001528 312.4947 161.1947  1.00270108 42557"
      },
      "geometry": {
        "type": "Point",
        "coordinates": [
          75.82019390483656,
          0.04518644481697423
        ]
      }
    }
  ]
}